[
    {
        "Altitude(m)": 570344.5982217985,
        "Argument of Periapsis(deg)": 0.033114955553567506,
        "Eccentricity": 0.0,
        "Inclination(deg)": 53.0,
        "Latitude(deg)": -49.33653228440423,
        "Longitude(deg)": 155.27012682073448,
        "Mean Anomaly(deg)": -71.36013566211203,
        "RAAN(deg)": 319.9507168426401,
        "Satellite Name": "Starlink Shell 1 1422",
        "Satellite Number": 1422,
        "Semi-Major Axis(m)": 6931778.249405717,
        "Time(s)": 950
    },
    {
        "Altitude(m)": 570245.4416215456,
        "Argument of Periapsis(deg)": 0.03346353403307874,
        "Eccentricity": 0.0,
        "Inclination(deg)": 53.0,
        "Latitude(deg)": -49.08910284367392,
        "Longitude(deg)": 156.1049895936612,
        "Mean Anomaly(deg)": -70.7333044585554,
        "RAAN(deg)": 319.9501980725626,
        "Satellite Name": "Starlink Shell 1 1422",
        "Satellite Number": 1422,
        "Semi-Major Axis(m)": 6931778.249405717,
        "Time(s)": 960
    },
    {
        "Altitude(m)": 570143.4399990253,
        "Argument of Periapsis(deg)": 0.03381211251258998,
        "Eccentricity": 0.0,
        "Inclination(deg)": 53.0,
        "Latitude(deg)": -48.835077959653454,
        "Longitude(deg)": 156.9310915489878,
        "Mean Anomaly(deg)": -70.10647325499855,
        "RAAN(deg)": 319.9496793024851,
        "Satellite Name": "Starlink Shell 1 1422",
        "Satellite Number": 1422,
        "Semi-Major Axis(m)": 6931778.249405717,
        "Time(s)": 970
    },
    {
        "Altitude(m)": 570038.6338169508,
        "Argument of Periapsis(deg)": 0.034160690992101214,
        "Eccentricity": 0.0,
        "Inclination(deg)": 53.0,
        "Latitude(deg)": -48.574580708239765,
        "Longitude(deg)": 157.74837461583695,
        "Mean Anomaly(deg)": -69.47964205144184,
        "RAAN(deg)": 319.94916053240763,
        "Satellite Name": "Starlink Shell 1 1422",
        "Satellite Number": 1422,
        "Semi-Major Axis(m)": 6931778.249405717,
        "Time(s)": 980
    },
    {
        "Altitude(m)": 569931.0646340585,
        "Argument of Periapsis(deg)": 0.034509269471612446,
        "Eccentricity": 0.0,
        "Inclination(deg)": 53.0,
        "Latitude(deg)": -48.30773422491936,
        "Longitude(deg)": 158.55679410230357,
        "Mean Anomaly(deg)": -68.8528108478852,
        "RAAN(deg)": 319.9486417623302,
        "Satellite Name": "Starlink Shell 1 1422",
        "Satellite Number": 1422,
        "Semi-Major Axis(m)": 6931778.249405717,
        "Time(s)": 990
    }
]